[{"OBJECT_NAME":"SPACEMOBILE-005","OBJECT_ID":"2024-163B","EPOCH":"2026-03-09T07:38:32.614656","MEAN_MOTION":15.21086957,"ECCENTRICITY":0.00107724,"INCLINATION":52.9748,"RA_OF_ASC_NODE":48.6908,"ARG_OF_PERICENTER":181.4195,"MEAN_ANOMALY":178.6771,"EPHEMERIS_TYPE":0,"CLASSIFICATION_TYPE":"U","NORAD_CAT_ID":61046,"ELEMENT_SET_NO":999,"REV_AT_EPOCH":8256,"BSTAR":0.00070863905,"MEAN_MOTION_DOT":0.00015682,"MEAN_MOTION_DDOT":0},{"OBJECT_NAME":"FORGESTAR-1","OBJECT_ID":"2025-135U","EPOCH":"2026-03-09T20:36:20.241504","MEAN_MOTION":15.22632363,"ECCENTRICITY":0.00019317,"INCLINATION":97.456,"RA_OF_ASC_NODE":185.1959,"ARG_OF_PERICENTER":126.9955,"MEAN_ANOMALY":233.1458,"EPHEMERIS_TYPE":0,"CLASSIFICATION_TYPE":"U","NORAD_CAT_ID":64546,"ELEMENT_SET_NO":999,"REV_AT_EPOCH":3978,"BSTAR":0.0004351723,"MEAN_MOTION_DOT":0.00010058,"MEAN_MOTION_DDOT":0}]
