SPACEMOBILE-005         
1 61046U 24163B   26068.31843304  .00015682  00000+0  70864-3 0  9990
2 61046  52.9748  48.6908 0010772 181.4195 178.6771 15.21086957 82567
FORGESTAR-1             
1 64546U 25135U   26068.85856760  .00010058  00000+0  43517-3 0  9994
2 64546  97.4560 185.1959 0001932 126.9955 233.1458 15.22632363 39784
